ONEWEB-0228             
1 48780U 21045P   24172.57784839 -.00027928  00000+0 -74805-1 0  9990
2 48780  87.9034  43.7748 0002034  85.2379 274.8983 13.15219532148798
